CCSDS_OMM_VERS = 2.0
CREATION_DATE  = 
ORIGINATOR     = 

OBJECT_NAME    = UNKNOWN
OBJECT_ID      = 
CENTER_NAME    = EARTH
REF_FRAME      = TEME
TIME_SYSTEM    = UTC
MEAN_ELEMENT_THEORY = SGP/SGP4

EPOCH          = 2025-11-04T10:52:11.853408
MEAN_MOTION    = 12.95541086
ECCENTRICITY   = .0032811
INCLINATION    = 90.2453
RA_OF_ASC_NODE = 4.2390
ARG_OF_PERICENTER = 46.9498
MEAN_ANOMALY   = 313.4361

EPHEMERIS_TYPE = 0
CLASSIFICATION_TYPE = U
NORAD_CAT_ID   = 270262
ELEMENT_SET_NO = 999
REV_AT_EPOCH   = 26717
BSTAR          = .19546668E-2
MEAN_MOTION_DOT = .561E-5
MEAN_MOTION_DDOT = 0

CCSDS_OMM_VERS = 2.0
CREATION_DATE  = 
ORIGINATOR     = 

OBJECT_NAME    = UNKNOWN
OBJECT_ID      = 
CENTER_NAME    = EARTH
REF_FRAME      = TEME
TIME_SYSTEM    = UTC
MEAN_ELEMENT_THEORY = SGP/SGP4

EPOCH          = 2025-11-08T05:27:38.230848
MEAN_MOTION    = 14.34726361
ECCENTRICITY   = .00356233
INCLINATION    = 86.4341
RA_OF_ASC_NODE = 133.5148
ARG_OF_PERICENTER = 94.2419
MEAN_ANOMALY   = 266.2849

EPHEMERIS_TYPE = 0
CLASSIFICATION_TYPE = U
NORAD_CAT_ID   = 270263
ELEMENT_SET_NO = 999
REV_AT_EPOCH   = 29790
BSTAR          = .63905023E-3
MEAN_MOTION_DOT = .1841E-4
MEAN_MOTION_DDOT = 0

CCSDS_OMM_VERS = 2.0
CREATION_DATE  = 
ORIGINATOR     = 

OBJECT_NAME    = UNKNOWN
OBJECT_ID      = 
CENTER_NAME    = EARTH
REF_FRAME      = TEME
TIME_SYSTEM    = UTC
MEAN_ELEMENT_THEORY = SGP/SGP4

EPOCH          = 2025-11-08T05:28:55.495776
MEAN_MOTION    = 13.15343812
ECCENTRICITY   = .00198703
INCLINATION    = 82.5459
RA_OF_ASC_NODE = 300.9938
ARG_OF_PERICENTER = 87.0315
MEAN_ANOMALY   = 273.3080

EPHEMERIS_TYPE = 0
CLASSIFICATION_TYPE = U
NORAD_CAT_ID   = 270264
ELEMENT_SET_NO = 999
REV_AT_EPOCH   = 27160
BSTAR          = .96101773E-3
MEAN_MOTION_DOT = .374E-5
MEAN_MOTION_DDOT = 0

CCSDS_OMM_VERS = 2.0
CREATION_DATE  = 
ORIGINATOR     = 

OBJECT_NAME    = UNKNOWN
OBJECT_ID      = 
CENTER_NAME    = EARTH
REF_FRAME      = TEME
TIME_SYSTEM    = UTC
MEAN_ELEMENT_THEORY = SGP/SGP4

EPOCH          = 2025-11-05T03:45:26.469504
MEAN_MOTION    = 12.71403550
ECCENTRICITY   = .02146325
INCLINATION    = 82.4357
RA_OF_ASC_NODE = 257.9325
ARG_OF_PERICENTER = 314.0302
MEAN_ANOMALY   = 44.3282

EPHEMERIS_TYPE = 0
CLASSIFICATION_TYPE = U
NORAD_CAT_ID   = 270265
ELEMENT_SET_NO = 999
REV_AT_EPOCH   = 26081
BSTAR          = .20830112E-1
MEAN_MOTION_DOT = .4632E-4
MEAN_MOTION_DDOT = 0

CCSDS_OMM_VERS = 2.0
CREATION_DATE  = 
ORIGINATOR     = 

OBJECT_NAME    = UNKNOWN
OBJECT_ID      = 
CENTER_NAME    = EARTH
REF_FRAME      = TEME
TIME_SYSTEM    = UTC
MEAN_ELEMENT_THEORY = SGP/SGP4

EPOCH          = 2025-11-01T05:50:18.443328
MEAN_MOTION    = 12.56172609
ECCENTRICITY   = .01857974
INCLINATION    = 82.4127
RA_OF_ASC_NODE = 290.1375
ARG_OF_PERICENTER = 40.2655
MEAN_ANOMALY   = 321.2025

EPHEMERIS_TYPE = 0
CLASSIFICATION_TYPE = U
NORAD_CAT_ID   = 270266
ELEMENT_SET_NO = 999
REV_AT_EPOCH   = 25704
BSTAR          = .17035904E-1
MEAN_MOTION_DOT = .3007E-4
MEAN_MOTION_DDOT = 0

CCSDS_OMM_VERS = 2.0
CREATION_DATE  = 
ORIGINATOR     = 

OBJECT_NAME    = UNKNOWN
OBJECT_ID      = 
CENTER_NAME    = EARTH
REF_FRAME      = TEME
TIME_SYSTEM    = UTC
MEAN_ELEMENT_THEORY = SGP/SGP4

EPOCH          = 2025-11-07T20:35:51.561024
MEAN_MOTION    = 12.96340085
ECCENTRICITY   = .00265876
INCLINATION    = 90.2415
RA_OF_ASC_NODE = 1.7930
ARG_OF_PERICENTER = 356.1838
MEAN_ANOMALY   = 3.9075

EPHEMERIS_TYPE = 0
CLASSIFICATION_TYPE = U
NORAD_CAT_ID   = 270267
ELEMENT_SET_NO = 999
REV_AT_EPOCH   = 26787
BSTAR          = .70203019E-3
MEAN_MOTION_DOT = .208E-5
MEAN_MOTION_DDOT = 0

CCSDS_OMM_VERS = 2.0
CREATION_DATE  = 
ORIGINATOR     = 

OBJECT_NAME    = UNKNOWN
OBJECT_ID      = 
CENTER_NAME    = EARTH
REF_FRAME      = TEME
TIME_SYSTEM    = UTC
MEAN_ELEMENT_THEORY = SGP/SGP4

EPOCH          = 2025-11-07T20:23:58.193376
MEAN_MOTION    = 12.98327549
ECCENTRICITY   = .00265992
INCLINATION    = 90.2427
RA_OF_ASC_NODE = 3.8795
ARG_OF_PERICENTER = 277.4483
MEAN_ANOMALY   = 82.3616

EPHEMERIS_TYPE = 0
CLASSIFICATION_TYPE = U
NORAD_CAT_ID   = 270268
ELEMENT_SET_NO = 999
REV_AT_EPOCH   = 26795
BSTAR          = .15072657E-3
MEAN_MOTION_DOT = .52E-6
MEAN_MOTION_DDOT = 0

CCSDS_OMM_VERS = 2.0
CREATION_DATE  = 
ORIGINATOR     = 

OBJECT_NAME    = UNKNOWN
OBJECT_ID      = 
CENTER_NAME    = EARTH
REF_FRAME      = TEME
TIME_SYSTEM    = UTC
MEAN_ELEMENT_THEORY = SGP/SGP4

EPOCH          = 2025-11-07T14:51:25.792992
MEAN_MOTION    = 13.30484947
ECCENTRICITY   = .00819411
INCLINATION    = 82.5832
RA_OF_ASC_NODE = 267.8365
ARG_OF_PERICENTER = 160.7572
MEAN_ANOMALY   = 199.6684

EPHEMERIS_TYPE = 0
CLASSIFICATION_TYPE = U
NORAD_CAT_ID   = 270269
ELEMENT_SET_NO = 999
REV_AT_EPOCH   = 27417
BSTAR          = .43788602E-3
MEAN_MOTION_DOT = .223E-5
MEAN_MOTION_DDOT = 0

CCSDS_OMM_VERS = 2.0
CREATION_DATE  = 
ORIGINATOR     = 

OBJECT_NAME    = UNKNOWN
OBJECT_ID      = 
CENTER_NAME    = EARTH
REF_FRAME      = TEME
TIME_SYSTEM    = UTC
MEAN_ELEMENT_THEORY = SGP/SGP4

EPOCH          = 2025-11-04T21:12:35.666496
MEAN_MOTION    = 12.98263728
ECCENTRICITY   = .00295021
INCLINATION    = 90.2502
RA_OF_ASC_NODE = 7.2596
ARG_OF_PERICENTER = 259.6515
MEAN_ANOMALY   = 100.1280

EPHEMERIS_TYPE = 0
CLASSIFICATION_TYPE = U
NORAD_CAT_ID   = 270274
ELEMENT_SET_NO = 999
REV_AT_EPOCH   = 26714
BSTAR          = -.96898755E-3
MEAN_MOTION_DOT = -.278E-5
MEAN_MOTION_DDOT = 0

CCSDS_OMM_VERS = 2.0
CREATION_DATE  = 
ORIGINATOR     = 

OBJECT_NAME    = UNKNOWN
OBJECT_ID      = 
CENTER_NAME    = EARTH
REF_FRAME      = TEME
TIME_SYSTEM    = UTC
MEAN_ELEMENT_THEORY = SGP/SGP4

EPOCH          = 2025-11-02T12:54:19.409760
MEAN_MOTION    = 13.89834430
ECCENTRICITY   = .03035095
INCLINATION    = 86.4310
RA_OF_ASC_NODE = 40.4216
ARG_OF_PERICENTER = 320.6705
MEAN_ANOMALY   = 37.2766

EPHEMERIS_TYPE = 0
CLASSIFICATION_TYPE = U
NORAD_CAT_ID   = 270275
ELEMENT_SET_NO = 999
REV_AT_EPOCH   = 1189
BSTAR          = .4509208E-2
MEAN_MOTION_DOT = .8048E-4
MEAN_MOTION_DDOT = 0

CCSDS_OMM_VERS = 2.0
CREATION_DATE  = 
ORIGINATOR     = 

OBJECT_NAME    = UNKNOWN
OBJECT_ID      = 
CENTER_NAME    = EARTH
REF_FRAME      = TEME
TIME_SYSTEM    = UTC
MEAN_ELEMENT_THEORY = SGP/SGP4

EPOCH          = 2025-11-06T05:57:43.427520
MEAN_MOTION    = 11.12851771
ECCENTRICITY   = .08467992
INCLINATION    = 102.3698
RA_OF_ASC_NODE = 125.3481
ARG_OF_PERICENTER = 166.4786
MEAN_ANOMALY   = 196.0494

EPHEMERIS_TYPE = 0
CLASSIFICATION_TYPE = U
NORAD_CAT_ID   = 270276
ELEMENT_SET_NO = 999
REV_AT_EPOCH   = 22925
BSTAR          = .20631537E-1
MEAN_MOTION_DOT = .1233E-4
MEAN_MOTION_DDOT = 0

CCSDS_OMM_VERS = 2.0
CREATION_DATE  = 
ORIGINATOR     = 

OBJECT_NAME    = UNKNOWN
OBJECT_ID      = 
CENTER_NAME    = EARTH
REF_FRAME      = TEME
TIME_SYSTEM    = UTC
MEAN_ELEMENT_THEORY = SGP/SGP4

EPOCH          = 2025-11-03T14:06:46.700928
MEAN_MOTION    = 14.41821451
ECCENTRICITY   = .02684168
INCLINATION    = 34.0992
RA_OF_ASC_NODE = 49.7078
ARG_OF_PERICENTER = 19.2135
MEAN_ANOMALY   = 341.8443

EPHEMERIS_TYPE = 0
CLASSIFICATION_TYPE = U
NORAD_CAT_ID   = 270278
ELEMENT_SET_NO = 999
REV_AT_EPOCH   = 28988
BSTAR          = .16437646E-2
MEAN_MOTION_DOT = .842E-4
MEAN_MOTION_DDOT = 0

CCSDS_OMM_VERS = 2.0
CREATION_DATE  = 
ORIGINATOR     = 

OBJECT_NAME    = UNKNOWN
OBJECT_ID      = 
CENTER_NAME    = EARTH
REF_FRAME      = TEME
TIME_SYSTEM    = UTC
MEAN_ELEMENT_THEORY = SGP/SGP4

EPOCH          = 2025-11-06T09:28:55.385472
MEAN_MOTION    = 12.93747824
ECCENTRICITY   = .00262207
INCLINATION    = 90.2286
RA_OF_ASC_NODE = 359.2220
ARG_OF_PERICENTER = 42.8655
MEAN_ANOMALY   = 317.4501

EPHEMERIS_TYPE = 0
CLASSIFICATION_TYPE = U
NORAD_CAT_ID   = 270279
ELEMENT_SET_NO = 999
REV_AT_EPOCH   = 26504
BSTAR          = -.601709E-3
MEAN_MOTION_DOT = -.158E-5
MEAN_MOTION_DDOT = 0

CCSDS_OMM_VERS = 2.0
CREATION_DATE  = 
ORIGINATOR     = 

OBJECT_NAME    = UNKNOWN
OBJECT_ID      = 
CENTER_NAME    = EARTH
REF_FRAME      = TEME
TIME_SYSTEM    = UTC
MEAN_ELEMENT_THEORY = SGP/SGP4

EPOCH          = 2025-11-03T10:24:20.079936
MEAN_MOTION    = 12.96930622
ECCENTRICITY   = .00274233
INCLINATION    = 90.2410
RA_OF_ASC_NODE = 2.2589
ARG_OF_PERICENTER = 239.8798
MEAN_ANOMALY   = 119.9604

EPHEMERIS_TYPE = 0
CLASSIFICATION_TYPE = U
NORAD_CAT_ID   = 270280
ELEMENT_SET_NO = 999
REV_AT_EPOCH   = 26545
BSTAR          = .15994792E-3
MEAN_MOTION_DOT = .53E-6
MEAN_MOTION_DDOT = 0

CCSDS_OMM_VERS = 2.0
CREATION_DATE  = 
ORIGINATOR     = 

OBJECT_NAME    = UNKNOWN
OBJECT_ID      = 
CENTER_NAME    = EARTH
REF_FRAME      = TEME
TIME_SYSTEM    = UTC
MEAN_ELEMENT_THEORY = SGP/SGP4

EPOCH          = 2025-11-02T09:44:33.448416
MEAN_MOTION    = 12.32252710
ECCENTRICITY   = .00738882
INCLINATION    = 82.5008
RA_OF_ASC_NODE = 346.7722
ARG_OF_PERICENTER = 54.2037
MEAN_ANOMALY   = 306.5874

EPHEMERIS_TYPE = 0
CLASSIFICATION_TYPE = U
NORAD_CAT_ID   = 270281
ELEMENT_SET_NO = 999
REV_AT_EPOCH   = 25100
BSTAR          = .15367599E-1
MEAN_MOTION_DOT = .1883E-4
MEAN_MOTION_DDOT = 0

CCSDS_OMM_VERS = 2.0
CREATION_DATE  = 
ORIGINATOR     = 

OBJECT_NAME    = UNKNOWN
OBJECT_ID      = 
CENTER_NAME    = EARTH
REF_FRAME      = TEME
TIME_SYSTEM    = UTC
MEAN_ELEMENT_THEORY = SGP/SGP4

EPOCH          = 2025-11-03T09:33:48.455136
MEAN_MOTION    = 12.25554672
ECCENTRICITY   = .04726269
INCLINATION    = 82.7595
RA_OF_ASC_NODE = 197.1784
ARG_OF_PERICENTER = 121.6667
MEAN_ANOMALY   = 243.1401

EPHEMERIS_TYPE = 0
CLASSIFICATION_TYPE = U
NORAD_CAT_ID   = 270282
ELEMENT_SET_NO = 999
REV_AT_EPOCH   = 25288
BSTAR          = .44229184E-2
MEAN_MOTION_DOT = .719E-5
MEAN_MOTION_DDOT = 0

